ONEWEB-0281             
1 48999U 21060AJ  24047.90041501  .00000051  00000+0  99424-4 0  9992
2 48999  87.9061  38.1832 0002022  92.0812 268.0550 13.16596237127611
ONEWEB-0282             
1 49000U 21060AK  24047.93048914 -.00000015  00000+0 -71948-4 0  9997
2 49000  87.9059  38.1941 0001981  74.1451 285.9898 13.16595115127590
ONEWEB-0283             
1 49001U 21060AL  24047.91940564 -.00000023  00000+0 -92896-4 0  9992
2 49001  87.9059  38.2040 0002173  82.0671 278.0707 13.16596368127603
ONEWEB-0284             
1 49002U 21060AM  24047.91307501  .00000027  00000+0  36230-4 0  9993
2 49002  87.9053  38.1960 0001857  77.6982 282.4357 13.16593919127587
ONEWEB-0285             
1 49075U 21075A   24047.79702449 -.00000334  00000+0 -96509-3 0  9992
2 49075  87.9044 160.0833 0001657 104.6649 255.4663 13.12443064123532
ONEWEB-0286             
1 49076U 21075B   24047.84453327  .00000390  00000+0  10499-2 0  9990
2 49076  87.9040 160.0808 0001654 121.8059 238.3230 13.12442918122899
ONEWEB-0287             
1 49077U 21075C   24047.84678795  .00000034  00000+0  53719-4 0  9998
2 49077  87.9252 175.1856 0001263 112.9600 247.1665 13.17648415121517
ONEWEB-0288             
1 49078U 21075D   24047.82865661  .00000391  00000+0  10519-2 0  9992
2 49078  87.9040 160.0878 0001490 109.2873 250.8417 13.12444327123512
